start=new Date('2022-07-20T00:00:00.000Z').valueOf();
sats=[{"BSTAR":"0.00007781400000","RA_OF_ASC_NODE":"322.9833","MEAN_ELEMENT_THEORY":"SGP4","EPOCH":"2022-07-19T15:14:58.699104","PERIAPSIS":"546.261","RCS_SIZE":"LARGE","MEAN_MOTION_DOT":"0.00000878","OBJECT_TYPE":"PAYLOAD","REF_FRAME":"TEME","DECAY_DATE":null,"EPHEMERIS_TYPE":"0","TIME_SYSTEM":"UTC","SEMIMAJOR_AXIS":"6925.330","PERIOD":"95.592","COUNTRY_CODE":"US","NORAD_CAT_ID":"46054","ECCENTRICITY":"0.00013480","MEAN_MOTION_DDOT":"0.0000000000000","FILE":"3517796","LAUNCH_DATE":"2020-08-07","TLE_LINE2":"2 46054  53.0564 322.9833 0001348  89.1168 270.9975 15.06406150108717","CENTER_NAME":"EARTH","CLASSIFICATION_TYPE":"U","MEAN_ANOMALY":"270.9975","ELEMENT_SET_NO":"999","GP_ID":"208469695","MEAN_MOTION":"15.06406150","OBJECT_NAME":"STARLINK-1548","TLE_LINE1":"1 46054U 20055AD  22200.63540161  .00000878  00000-0  77814-4 0  9997","SITE":"AFETR","OBJECT_ID":"2020-055AD","ARG_OF_PERICENTER":"89.1168","REV_AT_EPOCH":"10871","APOAPSIS":"548.128","INCLINATION":"53.0564"},{"PERIAPSIS":"546.232","BSTAR":"0.00017823000000","RA_OF_ASC_NODE":"322.4467","MEAN_ELEMENT_THEORY":"SGP4","EPOCH":"2022-07-19T18:04:49.096128","MEAN_MOTION_DOT":"0.00002375","RCS_SIZE":"LARGE","EPHEMERIS_TYPE":"0","TIME_SYSTEM":"UTC","OBJECT_TYPE":"PAYLOAD","REF_FRAME":"TEME","DECAY_DATE":null,"SEMIMAJOR_AXIS":"6925.324","PERIOD":"95.592","COUNTRY_CODE":"US","NORAD_CAT_ID":"46055","ECCENTRICITY":"0.00013820","FILE":"3517796","LAUNCH_DATE":"2020-08-07","MEAN_MOTION_DDOT":"0.0000000000000","MEAN_MOTION":"15.06408006","GP_ID":"208468444","ELEMENT_SET_NO":"999","OBJECT_NAME":"STARLINK-1554","TLE_LINE2":"2 46055  53.0547 322.4467 0001382  83.2661 276.8485 15.06408006108733","CENTER_NAME":"EARTH","CLASSIFICATION_TYPE":"U","MEAN_ANOMALY":"276.8485","OBJECT_ID":"2020-055AE","TLE_LINE1":"1 46055U 20055AE  22200.75334602  .00002375  00000-0  17823-3 0  9999","SITE":"AFETR","ARG_OF_PERICENTER":"83.2661","REV_AT_EPOCH":"10873","INCLINATION":"53.0547","APOAPSIS":"548.146"},{"ECCENTRICITY":"0.00014910","MEAN_MOTION_DDOT":"0.0000000000000","FILE":"3517796","LAUNCH_DATE":"2020-08-07","TLE_LINE2":"2 46056  53.0553 322.0452 0001491  59.3330 300.7806 15.06398038108758","CENTER_NAME":"EARTH","CLASSIFICATION_TYPE":"U","MEAN_ANOMALY":"300.7806","GP_ID":"208468694","MEAN_MOTION":"15.06398038","ELEMENT_SET_NO":"999","OBJECT_NAME":"STARLINK-1561","SITE":"AFETR","TLE_LINE1":"1 46056U 20055AF  22200.84087111  .00001561  00000-0  12368-3 0  9995","OBJECT_ID":"2020-055AF","ARG_OF_PERICENTER":"59.3330","REV_AT_EPOCH":"10875","APOAPSIS":"548.252","INCLINATION":"53.0553","BSTAR":"0.00012368000000","RA_OF_ASC_NODE":"322.0452","MEAN_ELEMENT_THEORY":"SGP4","EPOCH":"2022-07-19T20:10:51.263904","PERIAPSIS":"546.187","MEAN_MOTION_DOT":"0.00001561","RCS_SIZE":"LARGE","OBJECT_TYPE":"PAYLOAD","REF_FRAME":"TEME","DECAY_DATE":null,"EPHEMERIS_TYPE":"0","TIME_SYSTEM":"UTC","SEMIMAJOR_AXIS":"6925.355","PERIOD":"95.592","COUNTRY_CODE":"US","NORAD_CAT_ID":"46056"},{"EPHEMERIS_TYPE":"0","TIME_SYSTEM":"UTC","REF_FRAME":"TEME","DECAY_DATE":null,"OBJECT_TYPE":"PAYLOAD","COUNTRY_CODE":"US","NORAD_CAT_ID":"46058","SEMIMAJOR_AXIS":"6925.341","PERIOD":"95.592","PERIAPSIS":"546.220","MEAN_ELEMENT_THEORY":"SGP4","EPOCH":"2022-07-19T17:17:03.243552","BSTAR":"0.00016701000000","RA_OF_ASC_NODE":"322.5893","MEAN_MOTION_DOT":"0.00002207","RCS_SIZE":"LARGE","OBJECT_NAME":"STARLINK-1564","MEAN_MOTION":"15.06402388","GP_ID":"208468945","ELEMENT_SET_NO":"999","TLE_LINE2":"2 46058  53.0563 322.5893 0001424  95.7767 264.3384 15.06402388108726","CLASSIFICATION_TYPE":"U","MEAN_ANOMALY":"264.3384","CENTER_NAME":"EARTH","REV_AT_EPOCH":"10872","INCLINATION":"53.0563","APOAPSIS":"548.192","TLE_LINE1":"1 46058U 20055AH  22200.72017643  .00002207  00000-0  16701-3 0  9990","OBJECT_ID":"2020-055AH","SITE":"AFETR","ARG_OF_PERICENTER":"95.7767","ECCENTRICITY":"0.00014240","LAUNCH_DATE":"2020-08-07","FILE":"3517796","MEAN_MOTION_DDOT":"0.0000000000000"},{"ARG_OF_PERICENTER":"84.1896","TLE_LINE1":"1 46059U 20055AJ  22200.72755741  .00002009  00000-0  15373-3 0  9993","OBJECT_ID":"2020-055AJ","SITE":"AFETR","APOAPSIS":"548.192","INCLINATION":"53.0547","REV_AT_EPOCH":"10868","GP_ID":"208469196","MEAN_MOTION":"15.06400456","ELEMENT_SET_NO":"999","OBJECT_NAME":"STARLINK-1570","CENTER_NAME":"EARTH","MEAN_ANOMALY":"275.9255","CLASSIFICATION_TYPE":"U","TLE_LINE2":"2 46059  53.0547 322.5699 0001415  84.1896 275.9255 15.06400456108682","FILE":"3517796","LAUNCH_DATE":"2020-08-07","MEAN_MOTION_DDOT":"0.0000000000000","ECCENTRICITY":"0.00014150","PERIOD":"95.592","SEMIMAJOR_AXIS":"6925.347","NORAD_CAT_ID":"46059","COUNTRY_CODE":"US","TIME_SYSTEM":"UTC","EPHEMERIS_TYPE":"0","OBJECT_TYPE":"PAYLOAD","DECAY_DATE":null,"REF_FRAME":"TEME","MEAN_MOTION_DOT":"0.00002009","RCS_SIZE":"LARGE","PERIAPSIS":"546.232","RA_OF_ASC_NODE":"322.5699","BSTAR":"0.00015373000000","EPOCH":"2022-07-19T17:27:40.960224","MEAN_ELEMENT_THEORY":"SGP4"},{"EPHEMERIS_TYPE":"0","TIME_SYSTEM":"UTC","REF_FRAME":"TEME","DECAY_DATE":null,"OBJECT_TYPE":"PAYLOAD","COUNTRY_CODE":"US","NORAD_CAT_ID":"46060","SEMIMAJOR_AXIS":"6925.300","PERIOD":"95.591","PERIAPSIS":"546.211","MEAN_ELEMENT_THEORY":"SGP4","EPOCH":"2022-07-19T20:33:27.562464","BSTAR":"0.00104840000000","RA_OF_ASC_NODE":"321.9872","RCS_SIZE":"LARGE","MEAN_MOTION_DOT":"0.00015375","OBJECT_NAME":"STARLINK-1572","MEAN_MOTION":"15.06415856","GP_ID":"208467944","ELEMENT_SET_NO":"999","TLE_LINE2":"2 46060  53.0549 321.9872 0001378  79.6029 280.5115 15.06415856108718","CENTER_NAME":"EARTH","CLASSIFICATION_TYPE":"U","MEAN_ANOMALY":"280.5115","REV_AT_EPOCH":"10871","APOAPSIS":"548.119","INCLINATION":"53.0549","TLE_LINE1":"1 46060U 20055AK  22200.85656901  .00015375  00000-0  10484-2 0  9994","OBJECT_ID":"2020-055AK","SITE":"AFETR","ARG_OF_PERICENTER":"79.6029","ECCENTRICITY":"0.00013780","LAUNCH_DATE":"2020-08-07","FILE":"3517796","MEAN_MOTION_DDOT":"0.0000000000000"},{"MEAN_ANOMALY":"291.1039","CLASSIFICATION_TYPE":"U","CENTER_NAME":"EARTH","TLE_LINE2":"2 46061  53.0545 321.7263 0001466  69.0106 291.1039 15.06410368108754","ELEMENT_SET_NO":"999","GP_ID":"208468194","MEAN_MOTION":"15.06410368","OBJECT_NAME":"STARLINK-1573","ARG_OF_PERICENTER":"69.0106","OBJECT_ID":"2020-055AL","TLE_LINE1":"1 46061U 20055AL  22200.91553781  .00012829  00000-0  87833-3 0  9998","SITE":"AFETR","APOAPSIS":"548.197","INCLINATION":"53.0545","REV_AT_EPOCH":"10875","ECCENTRICITY":"0.00014660","MEAN_MOTION_DDOT":"0.0000000000000","FILE":"3517796","LAUNCH_DATE":"2020-08-07","OBJECT_TYPE":"PAYLOAD","DECAY_DATE":null,"REF_FRAME":"TEME","TIME_SYSTEM":"UTC","EPHEMERIS_TYPE":"0","PERIOD":"95.591","SEMIMAJOR_AXIS":"6925.317","NORAD_CAT_ID":"46061","COUNTRY_CODE":"US","RA_OF_ASC_NODE":"321.7263","BSTAR":"0.00087833000000","EPOCH":"2022-07-19T21:58:22.466784","MEAN_ELEMENT_THEORY":"SGP4","PERIAPSIS":"546.167","RCS_SIZE":"LARGE","MEAN_MOTION_DOT":"0.00012829"},{"RCS_SIZE":"LARGE","MEAN_MOTION_DOT":"-0.00000204","BSTAR":"0.00000520800000","RA_OF_ASC_NODE":"322.4573","MEAN_ELEMENT_THEORY":"SGP4","EPOCH":"2022-07-19T17:59:31.120800","PERIAPSIS":"546.045","SEMIMAJOR_AXIS":"6925.338","PERIOD":"95.592","COUNTRY_CODE":"US","NORAD_CAT_ID":"46062","OBJECT_TYPE":"PAYLOAD","REF_FRAME":"TEME","DECAY_DATE":null,"EPHEMERIS_TYPE":"0","TIME_SYSTEM":"UTC","MEAN_MOTION_DDOT":"0.0000000000000","FILE":"3517796","LAUNCH_DATE":"2020-08-07","ECCENTRICITY":"0.00016720","TLE_LINE1":"1 46062U 20055AM  22200.74966575 -.00000204  00000-0  52080-5 0  9992","SITE":"AFETR","OBJECT_ID":"2020-055AM","ARG_OF_PERICENTER":"68.7951","REV_AT_EPOCH":"10869","INCLINATION":"53.0547","APOAPSIS":"548.360","TLE_LINE2":"2 46062  53.0547 322.4573 0001672  68.7951 291.3217 15.06403584108697","CENTER_NAME":"EARTH","MEAN_ANOMALY":"291.3217","CLASSIFICATION_TYPE":"U","ELEMENT_SET_NO":"999","GP_ID":"208469446","MEAN_MOTION":"15.06403584","OBJECT_NAME":"STARLINK-1574"},{"LAUNCH_DATE":"2020-08-07","FILE":"3517796","MEAN_MOTION_DDOT":"0.0000000000000","ECCENTRICITY":"0.00013710","INCLINATION":"53.0538","APOAPSIS":"548.122","REV_AT_EPOCH":"10873","ARG_OF_PERICENTER":"91.8600","SITE":"AFETR","TLE_LINE1":"1 46063U 20055AN  22200.81232763  .00008500  00000-0  58865-3 0  9997","OBJECT_ID":"2020-055AN","OBJECT_NAME":"STARLINK-1577","GP_ID":"208469696","ELEMENT_SET_NO":"999","MEAN_MOTION":"15.06413497","CENTER_NAME":"EARTH","CLASSIFICATION_TYPE":"U","MEAN_ANOMALY":"268.2546","TLE_LINE2":"2 46063  53.0538 322.1937 0001371  91.8600 268.2546 15.06413497108730","RCS_SIZE":"LARGE","MEAN_MOTION_DOT":"0.00008500","PERIAPSIS":"546.223","EPOCH":"2022-07-19T19:29:45.107232","MEAN_ELEMENT_THEORY":"SGP4","BSTAR":"0.00058865000000","RA_OF_ASC_NODE":"322.1937","NORAD_CAT_ID":"46063","COUNTRY_CODE":"US","PERIOD":"95.591","SEMIMAJOR_AXIS":"6925.307","TIME_SYSTEM":"UTC","EPHEMERIS_TYPE":"0","DECAY_DATE":null,"REF_FRAME":"TEME","OBJECT_TYPE":"PAYLOAD"},{"MEAN_MOTION_DOT":"0.00002234","RCS_SIZE":"LARGE","PERIAPSIS":"546.121","MEAN_ELEMENT_THEORY":"SGP4","EPOCH":"2022-07-19T17:06:26.927424","BSTAR":"0.00016882000000","RA_OF_ASC_NODE":"322.6328","COUNTRY_CODE":"US","NORAD_CAT_ID":"46064","SEMIMAJOR_AXIS":"6925.343","PERIOD":"95.592","EPHEMERIS_TYPE":"0","TIME_SYSTEM":"UTC","REF_FRAME":"TEME","DECAY_DATE":null,"OBJECT_TYPE":"PAYLOAD","LAUNCH_DATE":"2020-08-07","FILE":"3517796","MEAN_MOTION_DDOT":"0.0000000000000","ECCENTRICITY":"0.00015690","REV_AT_EPOCH":"10872","APOAPSIS":"548.294","INCLINATION":"53.0558","OBJECT_ID":"2020-055AP","TLE_LINE1":"1 46064U 20055AP  22200.71281166  .00002234  00000-0  16882-3 0  9999","SITE":"AFETR","ARG_OF_PERICENTER":"76.1578","OBJECT_NAME":"STARLINK-1583","GP_ID":"208468445","ELEMENT_SET_NO":"999","MEAN_MOTION":"15.06401939","TLE_LINE2":"2 46064  53.0558 322.6328 0001569  76.1578 283.9586 15.06401939108726","MEAN_ANOMALY":"283.9586","CENTER_NAME":"EARTH","CLASSIFICATION_TYPE":"U"}];
